CCSDS_OMM_VERS = 2.0
CREATION_DATE  = 
ORIGINATOR     = 

OBJECT_NAME    = SL-4 R/B
OBJECT_ID      = 2014-021B
CENTER_NAME    = EARTH
REF_FRAME      = TEME
TIME_SYSTEM    = UTC
MEAN_ELEMENT_THEORY = SGP/SGP4

EPOCH          = 2026-01-26T14:26:25.091520
MEAN_MOTION    = 15.37858279
ECCENTRICITY   = .00990719
INCLINATION    = 51.6059
RA_OF_ASC_NODE = 182.3853
ARG_OF_PERICENTER = 309.4769
MEAN_ANOMALY   = 49.7483

EPHEMERIS_TYPE = 0
CLASSIFICATION_TYPE = U
NORAD_CAT_ID   = 39679
ELEMENT_SET_NO = 999
REV_AT_EPOCH   = 64979
BSTAR          = .33664282E-3
MEAN_MOTION_DOT = .14638E-3
MEAN_MOTION_DDOT = 0

CCSDS_OMM_VERS = 2.0
CREATION_DATE  = 
ORIGINATOR     = 

OBJECT_NAME    = ALOS-2
OBJECT_ID      = 2014-029A
CENTER_NAME    = EARTH
REF_FRAME      = TEME
TIME_SYSTEM    = UTC
MEAN_ELEMENT_THEORY = SGP/SGP4

EPOCH          = 2026-01-26T14:00:25.283808
MEAN_MOTION    = 14.79470309
ECCENTRICITY   = .00014856
INCLINATION    = 97.9193
RA_OF_ASC_NODE = 125.7846
ARG_OF_PERICENTER = 101.0199
MEAN_ANOMALY   = 259.1180

EPHEMERIS_TYPE = 0
CLASSIFICATION_TYPE = U
NORAD_CAT_ID   = 39766
ELEMENT_SET_NO = 999
REV_AT_EPOCH   = 63064
BSTAR          = .17661946E-3
MEAN_MOTION_DOT = .1268E-4
MEAN_MOTION_DDOT = 0

CCSDS_OMM_VERS = 2.0
CREATION_DATE  = 
ORIGINATOR     = 

OBJECT_NAME    = YAOGAN-29
OBJECT_ID      = 2015-069A
CENTER_NAME    = EARTH
REF_FRAME      = TEME
TIME_SYSTEM    = UTC
MEAN_ELEMENT_THEORY = SGP/SGP4

EPOCH          = 2026-01-26T14:58:05.608128
MEAN_MOTION    = 14.82943311
ECCENTRICITY   = .00027436
INCLINATION    = 98.0190
RA_OF_ASC_NODE = 54.9329
ARG_OF_PERICENTER = 106.9755
MEAN_ANOMALY   = 253.1760

EPHEMERIS_TYPE = 0
CLASSIFICATION_TYPE = U
NORAD_CAT_ID   = 41038
ELEMENT_SET_NO = 999
REV_AT_EPOCH   = 54964
BSTAR          = .12658385E-3
MEAN_MOTION_DOT = .973E-5
MEAN_MOTION_DDOT = 0

CCSDS_OMM_VERS = 2.0
CREATION_DATE  = 
ORIGINATOR     = 

OBJECT_NAME    = ASTRO-H (HITOMI)
OBJECT_ID      = 2016-012A
CENTER_NAME    = EARTH
REF_FRAME      = TEME
TIME_SYSTEM    = UTC
MEAN_ELEMENT_THEORY = SGP/SGP4

EPOCH          = 2026-01-25T23:50:23.965152
MEAN_MOTION    = 15.09682793
ECCENTRICITY   = .00099285
INCLINATION    = 30.9994
RA_OF_ASC_NODE = 272.0124
ARG_OF_PERICENTER = 264.1512
MEAN_ANOMALY   = 95.7995

EPHEMERIS_TYPE = 0
CLASSIFICATION_TYPE = U
NORAD_CAT_ID   = 41337
ELEMENT_SET_NO = 999
REV_AT_EPOCH   = 54577
BSTAR          = .2742275E-3
MEAN_MOTION_DOT = .4626E-4
MEAN_MOTION_DDOT = 0

CCSDS_OMM_VERS = 2.0
CREATION_DATE  = 
ORIGINATOR     = 

OBJECT_NAME    = HXMT (HUIYAN)
OBJECT_ID      = 2017-034A
CENTER_NAME    = EARTH
REF_FRAME      = TEME
TIME_SYSTEM    = UTC
MEAN_ELEMENT_THEORY = SGP/SGP4

EPOCH          = 2026-01-26T15:26:06.108000
MEAN_MOTION    = 15.16901808
ECCENTRICITY   = .0032697
INCLINATION    = 43.0133
RA_OF_ASC_NODE = 250.3359
ARG_OF_PERICENTER = 326.5965
MEAN_ANOMALY   = 33.2821

EPHEMERIS_TYPE = 0
CLASSIFICATION_TYPE = U
NORAD_CAT_ID   = 42758
ELEMENT_SET_NO = 999
REV_AT_EPOCH   = 47615
BSTAR          = .37137233E-3
MEAN_MOTION_DOT = .7318E-4
MEAN_MOTION_DDOT = 0

CCSDS_OMM_VERS = 2.0
CREATION_DATE  = 
ORIGINATOR     = 

OBJECT_NAME    = CZ-2C R/B
OBJECT_ID      = 2018-054D
CENTER_NAME    = EARTH
REF_FRAME      = TEME
TIME_SYSTEM    = UTC
MEAN_ELEMENT_THEORY = SGP/SGP4

EPOCH          = 2026-01-26T15:43:15.131136
MEAN_MOTION    = 15.88244156
ECCENTRICITY   = .00130246
INCLINATION    = 35.1307
RA_OF_ASC_NODE = 233.5843
ARG_OF_PERICENTER = 254.6267
MEAN_ANOMALY   = 105.3031

EPHEMERIS_TYPE = 0
CLASSIFICATION_TYPE = U
NORAD_CAT_ID   = 43521
ELEMENT_SET_NO = 999
REV_AT_EPOCH   = 42216
BSTAR          = .82910196E-3
MEAN_MOTION_DOT = .245988E-2
MEAN_MOTION_DDOT = 0

CCSDS_OMM_VERS = 2.0
CREATION_DATE  = 
ORIGINATOR     = 

OBJECT_NAME    = SAOCOM 1A
OBJECT_ID      = 2018-076A
CENTER_NAME    = EARTH
REF_FRAME      = TEME
TIME_SYSTEM    = UTC
MEAN_ELEMENT_THEORY = SGP/SGP4

EPOCH          = 2026-01-26T15:12:48.263616
MEAN_MOTION    = 14.82169852
ECCENTRICITY   = .00015368
INCLINATION    = 97.8864
RA_OF_ASC_NODE = 215.4044
ARG_OF_PERICENTER = 83.5223
MEAN_ANOMALY   = 276.6165

EPHEMERIS_TYPE = 0
CLASSIFICATION_TYPE = U
NORAD_CAT_ID   = 43641
ELEMENT_SET_NO = 999
REV_AT_EPOCH   = 39513
BSTAR          = .12438316E-3
MEAN_MOTION_DOT = .938E-5
MEAN_MOTION_DDOT = 0

CCSDS_OMM_VERS = 2.0
CREATION_DATE  = 
ORIGINATOR     = 

OBJECT_NAME    = H-2A R/B
OBJECT_ID      = 2018-084L
CENTER_NAME    = EARTH
REF_FRAME      = TEME
TIME_SYSTEM    = UTC
MEAN_ELEMENT_THEORY = SGP/SGP4

EPOCH          = 2026-01-26T12:13:29.771040
MEAN_MOTION    = 15.39409660
ECCENTRICITY   = .0026028
INCLINATION    = 98.8767
RA_OF_ASC_NODE = 234.9413
ARG_OF_PERICENTER = 168.2409
MEAN_ANOMALY   = 191.9445

EPHEMERIS_TYPE = 0
CLASSIFICATION_TYPE = U
NORAD_CAT_ID   = 43682
ELEMENT_SET_NO = 999
REV_AT_EPOCH   = 39928
BSTAR          = .68881553E-3
MEAN_MOTION_DOT = .27231E-3
MEAN_MOTION_DDOT = 0

CCSDS_OMM_VERS = 2.0
CREATION_DATE  = 
ORIGINATOR     = 

OBJECT_NAME    = SAOCOM 1B
OBJECT_ID      = 2020-059A
CENTER_NAME    = EARTH
REF_FRAME      = TEME
TIME_SYSTEM    = UTC
MEAN_ELEMENT_THEORY = SGP/SGP4

EPOCH          = 2026-01-26T15:57:48.387168
MEAN_MOTION    = 14.82144067
ECCENTRICITY   = .000132
INCLINATION    = 97.8859
RA_OF_ASC_NODE = 214.5338
ARG_OF_PERICENTER = 86.9025
MEAN_ANOMALY   = 273.2340

EPHEMERIS_TYPE = 0
CLASSIFICATION_TYPE = U
NORAD_CAT_ID   = 46265
ELEMENT_SET_NO = 999
REV_AT_EPOCH   = 29252
BSTAR          = .88568033E-4
MEAN_MOTION_DOT = .653E-5
MEAN_MOTION_DDOT = 0

CCSDS_OMM_VERS = 2.0
CREATION_DATE  = 
ORIGINATOR     = 

OBJECT_NAME    = CSS (TIANHE)
OBJECT_ID      = 2021-035A
CENTER_NAME    = EARTH
REF_FRAME      = TEME
TIME_SYSTEM    = UTC
MEAN_ELEMENT_THEORY = SGP/SGP4

EPOCH          = 2026-01-26T14:08:01.171680
MEAN_MOTION    = 15.61124470
ECCENTRICITY   = .00097448
INCLINATION    = 41.4668
RA_OF_ASC_NODE = 104.0443
ARG_OF_PERICENTER = 7.7194
MEAN_ANOMALY   = 352.3793

EPHEMERIS_TYPE = 0
CLASSIFICATION_TYPE = U
NORAD_CAT_ID   = 48274
ELEMENT_SET_NO = 999
REV_AT_EPOCH   = 27103
BSTAR          = .29991174E-3
MEAN_MOTION_DOT = .25844E-3
MEAN_MOTION_DDOT = 0

CCSDS_OMM_VERS = 2.0
CREATION_DATE  = 
ORIGINATOR     = 

OBJECT_NAME    = COSMOS 2550
OBJECT_ID      = 2021-056A
CENTER_NAME    = EARTH
REF_FRAME      = TEME
TIME_SYSTEM    = UTC
MEAN_ELEMENT_THEORY = SGP/SGP4

EPOCH          = 2026-01-26T03:10:39.828288
MEAN_MOTION    = 15.33840202
ECCENTRICITY   = .00083094
INCLINATION    = 67.1441
RA_OF_ASC_NODE = 169.6578
ARG_OF_PERICENTER = 269.8947
MEAN_ANOMALY   = 90.1255

EPHEMERIS_TYPE = 0
CLASSIFICATION_TYPE = U
NORAD_CAT_ID   = 48865
ELEMENT_SET_NO = 999
REV_AT_EPOCH   = 25693
BSTAR          = .322698E-6
MEAN_MOTION_DOT = -.181E-5
MEAN_MOTION_DDOT = 0

CCSDS_OMM_VERS = 2.0
CREATION_DATE  = 
ORIGINATOR     = 

OBJECT_NAME    = CZ-2C R/B
OBJECT_ID      = 2022-058K
CENTER_NAME    = EARTH
REF_FRAME      = TEME
TIME_SYSTEM    = UTC
MEAN_ELEMENT_THEORY = SGP/SGP4

EPOCH          = 2026-01-26T14:48:58.778208
MEAN_MOTION    = 15.51297064
ECCENTRICITY   = .00425365
INCLINATION    = 50.1883
RA_OF_ASC_NODE = 174.2249
ARG_OF_PERICENTER = 23.1525
MEAN_ANOMALY   = 337.1349

EPHEMERIS_TYPE = 0
CLASSIFICATION_TYPE = U
NORAD_CAT_ID   = 52794
ELEMENT_SET_NO = 999
REV_AT_EPOCH   = 20359
BSTAR          = .62654453E-3
MEAN_MOTION_DOT = .38636E-3
MEAN_MOTION_DDOT = 0

