SL-4 R/B                
1 39679U 14021B   26026.60167930  .00014638  00000+0  33664-3 0  9996
2 39679  51.6059 182.3853 0099071 309.4769  49.7483 15.37858279649791
ALOS-2                  
1 39766U 14029A   26026.58362597  .00001268  00000+0  17662-3 0  9999
2 39766  97.9193 125.7846 0001485 101.0199 259.1180 14.79470309630642
YAOGAN-29               
1 41038U 15069A   26026.62367602  .00000973  00000+0  12658-3 0  9998
2 41038  98.0190  54.9329 0002743 106.9755 253.1760 14.82943311549644
ASTRO-H (HITOMI)        
1 41337U 16012A   26025.99333293  .00004626  00000+0  27423-3 0  9992
2 41337  30.9994 272.0124 0009928 264.1512  95.7995 15.09682793545773
HXMT (HUIYAN)           
1 42758U 17034A   26026.64312625  .00007318  00000+0  37137-3 0  9998
2 42758  43.0133 250.3359 0032697 326.5965  33.2821 15.16901808476153
CZ-2C R/B               
1 43521U 18054D   26026.65503624  .00245988  00000+0  82910-3 0  9998
2 43521  35.1307 233.5843 0013024 254.6267 105.3031 15.88244156422168
SAOCOM 1A               
1 43641U 18076A   26026.63389194  .00000938  00000+0  12438-3 0  9999
2 43641  97.8864 215.4044 0001536  83.5223 276.6165 14.82169852395130
H-2A R/B                
1 43682U 18084L   26026.50937235  .00027231  00000+0  68882-3 0  9993
2 43682  98.8767 234.9413 0026028 168.2409 191.9445 15.39409660399281
SAOCOM 1B               
1 46265U 20059A   26026.66514337  .00000653  00000+0  88568-4 0  9992
2 46265  97.8859 214.5338 0001320  86.9025 273.2340 14.82144067292521
CSS (TIANHE)            
1 48274U 21035A   26026.58890245  .00025844  00000+0  29991-3 0  9998
2 48274  41.4668 104.0443 0009744   7.7194 352.3793 15.61124470271030
COSMOS 2550             
1 48865U 21056A   26026.13240542 -.00000181  00000+0  32270-6 0  9992
2 48865  67.1441 169.6578 0008309 269.8947  90.1255 15.33840202256938
CZ-2C R/B               
1 52794U 22058K   26026.61734697  .00038636  00000+0  62654-3 0  9994
2 52794  50.1883 174.2249 0042536  23.1525 337.1349 15.51297064203590
